[{"OBJECT_NAME":"STARLINK-32851","OBJECT_ID":"2025-018E","EPOCH":"2026-03-09T21:56:32.024256","MEAN_MOTION":15.30198638,"ECCENTRICITY":0.00011999,"INCLINATION":53.1622,"RA_OF_ASC_NODE":308.4855,"ARG_OF_PERICENTER":102.3095,"MEAN_ANOMALY":257.804,"EPHEMERIS_TYPE":0,"CLASSIFICATION_TYPE":"U","NORAD_CAT_ID":62810,"ELEMENT_SET_NO":999,"REV_AT_EPOCH":6320,"BSTAR":0.00080600521,"MEAN_MOTION_DOT":0.00023587,"MEAN_MOTION_DDOT":0},{"OBJECT_NAME":"OBJECT D","OBJECT_ID":"2021-102D","EPOCH":"2026-03-09T14:47:14.426880","MEAN_MOTION":15.2846442,"ECCENTRICITY":0.0009157,"INCLINATION":97.3342,"RA_OF_ASC_NODE":112.2633,"ARG_OF_PERICENTER":187.6206,"MEAN_ANOMALY":172.4897,"EPHEMERIS_TYPE":0,"CLASSIFICATION_TYPE":"U","NORAD_CAT_ID":49398,"ELEMENT_SET_NO":999,"REV_AT_EPOCH":23880,"BSTAR":0.00046011,"MEAN_MOTION_DOT":0.00012697,"MEAN_MOTION_DDOT":0}]
